INTELSAT 11 (IS-11)     
1 32253C 07044B   22237.00000000 -.00000178  00000-0  00000-0 0  2378
2 32253   0.0062 110.1039 0001639  64.0333 116.1193  1.00272743    17
INTELSAT 11 (IS-11)     
1 32253C 07044B   22241.00000000 -.00002854  00000-0  00000-0 0  2411
2 32253   0.0096 207.7787 0001730 324.3357 122.0896  1.00270681    12
INTELSAT 11 (IS-11) [PM]
1 32253C 07044B   22243.88442130 -.00003457  00000-0  00000-0 0  2435
2 32253   0.0004 193.1391 0001805 337.1039  85.1941  1.00272768    10
HORIZONS-2              
1 32388C 07063B   22237.00000000 -.00000036  00000-0  00000-0 0  2371
2 32388   0.0183  93.8209 0003182  11.8230 212.5300  0.99714732    14
HORIZONS-2          [PM]
1 32388C 07063B   22240.58540509 -.00000071  00000-0  00000-0 0  2404
2 32388   0.0103 211.1996 0003293 251.1050  62.9415  0.99713638    14
HORIZONS-2              
1 32388C 07063B   22241.00000000 -.00000052  00000-0  00000-0 0  2419
2 32388   0.0087 209.5277 0003297 253.4305 211.1171  0.99713877    12
GALAXY 18 (G-18)        
1 32951C 08024A   22237.00000000  .00000115  00000-0  00000-0 0  2372
2 32951   0.0018 163.5076 0002925   1.8980  44.8394  1.00271581    11
GALAXY 18 (G-18)        
1 32951C 08024A   22241.00000000  .00000129  00000-0  00000-0 0  2417
2 32951   0.0007 157.5798 0002992   5.8397  50.7737  1.00271074    17
GALAXY 18 (G-18)    [PM]
1 32951C 08024A   22241.09375000  .00000117  00000-0  00000-0 0  2418
2 32951   0.0007 157.8854 0003044   6.0103  84.1397  1.00271189    10
INTELSAT 25 (IS-25)     
1 33153C 08034A   22237.00000000 -.00000128  00000-0  00000-0 0  2373
2 33153   0.0116 157.7867 0003054  10.5628 133.3908  1.00271582    14
INTELSAT 25 (IS-25) [PM]
1 33153C 08034A   22239.78541667 -.00000134  00000-0  00000-0 0  2398
2 33153   0.0121 151.0488 0002767   2.6371  73.5561  1.00273407    11
INTELSAT 25 (IS-25)     
1 33153C 08034A   22241.00000000 -.00000134  00000-0  00000-0 0  2410
2 33153   0.0117 148.8839 0002965   8.0260 148.7878  1.00273169    18
GALAXY 19 (G-19)        
1 33376C 08045A   22237.00000000 -.00000046  00000-0  00000-0 0  2371
2 33376   0.0582 282.9111 0002877 245.8293  67.4878  1.00269957    10
GALAXY 19 (G-19)        
1 33376C 08045A   22241.00000000 -.00000049  00000-0  00000-0 0  2414
2 33376   0.0569 287.4938 0002888 227.3915  85.3112  1.00271992    12
GALAXY 19 (G-19)    [PM]
1 33376C 08045A   22241.59828704 -.00000049  00000-0  00000-0 0  2417
2 33376   0.0667 281.2437 0002986 234.7585 300.1690  1.00271088    16
INTELSAT 14 (IS-14)     
1 36097C 09064A   22237.00000000 -.00003999  00000-0  00000-0 0  2376
2 36097   0.0028 168.7810 0002338 356.8038 122.6537  1.00273843    12
INTELSAT 14 (IS-14)     
1 36097C 09064A   22241.00000000 -.00000183  00000-0  00000-0 0  2418
2 36097   0.0047 127.8508 0002421  37.0938 127.2612  1.00271933    16
INTELSAT 14 (IS-14) [PM]
1 36097C 09064A   22241.45528935 -.00003631  00000-0  00000-0 0  2410
2 36097   0.0311 256.9923 0002557 264.6269 294.9405  1.00268283    16
INTELSAT 15 (IS-15)     
1 36106C 09067A   22237.00000000 -.00000087  00000-0  00000-0 0  2375
2 36106   0.0003  49.5082 0002144 114.3075 254.5716  1.00270450    11
INTELSAT 15 (IS-15)     
1 36106C 09067A   22241.00000000 -.00003625  00000-0  00000-0 0  2416
2 36106   0.0001  78.9901 0002188  78.2026 265.1469  1.00271365    16
INTELSAT 15 (IS-15) [PM]
1 36106C 09067A   22243.51538194 -.00000111  00000-0  00000-0 0  2433
2 36106   0.0060  75.1791 0002376  77.6835  97.4913  1.00272879    18
INTELSAT 16 (IS-16)     
1 36397C 10006A   22237.00000000 -.00000196  00000-0  00000-0 0  2373
2 36397   0.0371 291.2090 0001926 230.8768  94.9548  1.00273038    10
INTELSAT 16 (IS-16)     
1 36397C 10006A   22241.00000000 -.00003554  00000-0  00000-0 0  2414
2 36397   0.0426 314.2748 0002036 203.8653 102.8537  1.00271097    13
INTELSAT 16 (IS-16) [PM]
1 36397C 10006A   22243.92479167 -.00000155  00000-0  00000-0 0  2437
2 36397   0.0024  91.0280 0002184  61.8699  83.8944  1.00273533    11
INTELSAT 17 (IS-17)     
1 37238C 10065B   22237.00000000  .00000089  00000-0  00000-0 0  2373
2 37238   0.0292 194.2323 0002510 332.6420 232.3622  1.00271116    10
INTELSAT 17 (IS-17)     
1 37238C 10065B   22241.00000000  .00000089  00000-0  00000-0 0  2413
2 37238   0.0299 205.3003 0002594 319.9074 237.9723  1.00271307    16
INTELSAT 17 (IS-17) [PM]
1 37238C 10065B   22247.62918982  .00000089  00000-0  00000-0 0  2470
2 37238   0.0306 220.9408 0002763 309.7696 105.5209  1.00270803    11
INTELSAT NEW DAWN       
1 37392C 11016A   22237.00000000  .00000246  00000-0  00000-0 0  2376
2 37392   0.0151 150.3567 0000820 354.7744 220.9157  1.00271377    19
INTELSAT NEW DAWN       
1 37392C 11016A   22241.00000000  .00000246  00000-0  00000-0 0  2416
2 37392   0.0163 146.1030 0000924 356.3383 227.5641  1.00272902    18
INTELSAT NEW DAWN   [PM]
1 37392C 11016A   22242.08975694  .00000246  00000-0  00000-0 0  2426
2 37392   0.0100 168.0821 0001304 286.0611 309.2453  1.00269354    12
INTELSAT 18 (IS-18)     
1 37834C 11056A   22237.00000000 -.00003987  00000-0  00000-0 0  2377
2 37834   0.0225  26.6328 0002087 138.7438 347.8555  1.00271838    12
INTELSAT 18 (IS-18)     
1 37834C 11056A   22241.00000000  .00000142  00000-0  00000-0 0  2416
2 37834   0.0160  27.8629 0002233 129.2649   0.0623  1.00269420    17
INTELSAT 18 (IS-18) [PM]
1 37834C 11056A   22241.87628472  .00000135  00000-0  00000-0 0  2412
2 37834   0.0101  37.3085 0002295 121.0935 315.1084  1.00270176    11
INTELSAT 22 (IS-22)     
1 38098C 12011A   22237.00000000 -.00000005  00000-0  00000-0 0  2370
2 38098   0.0301 241.0258 0002701 288.6310 235.6825  1.00271952    13
INTELSAT 22 (IS-22)     
1 38098C 12011A   22241.00000000  .00000032  00000-0  00000-0 0  2419
2 38098   0.0086 196.0339 0002766 330.7256 242.5349  1.00271751    16
INTELSAT 22 (IS-22) [PM]
1 38098C 12011A   22243.03762732 -.00003508  00000-0  00000-0 0  2435
2 38098   0.0000 175.3833 0002892 349.5929 259.8762  1.00271411    19
INTELSAT 19 (IS-19)     
1 38356C 12030A   22237.00000000  .00000034  00000-0  00000-0 0  2379
2 38356   0.0089 115.0181 0002970  49.6804 334.5470  1.00272094    12
INTELSAT 19 (IS-19)     
1 38356C 12030A   22241.00000000 -.00003405  00000-0  00000-0 0  2415
2 38356   0.0426 280.4252 0002846 236.8791 345.8917  1.00270916    12
INTELSAT 19 (IS-19) [PM]
1 38356C 12030A   22242.31944444  .00000045  00000-0  00000-0 0  2426
2 38356   0.0305 262.2501 0002958 253.7329 103.5020  1.00271542    12
INTELSAT 20 (IS-20) [PM]
1 38740C 12043A   22236.22814815  .00000066  00000-0  00000-0 0  2364
2 38740   0.0124 127.4490 0001589  59.0900 296.5593  1.00272732    18
INTELSAT 20 (IS-20)     
1 38740C 12043A   22237.00000000  .00000066  00000-0  00000-0 0  2375
2 38740   0.0158 138.1305 0001555  60.3183 203.2796  1.00270504    15
INTELSAT 20 (IS-20)     
1 38740C 12043A   22241.00000000  .00000066  00000-0  00000-0 0  2415
2 38740   0.0114 161.3655 0001363  19.5376 224.7853  1.00270839    13
INTELSAT 21 (IS-21)     
1 38749C 12045A   22237.00000000 -.00000195  00000-0  00000-0 0  2370
2 38749   0.0064 110.8080 0002081  54.8889 109.5384  1.00273583    14
INTELSAT 21 (IS-21)     
1 38749C 12045A   22241.00000000 -.00000195  00000-0  00000-0 0  2410
2 38749   0.0112 114.1910 0002191  48.1186 116.8875  1.00271605    14
INTELSAT 21 (IS-21) [PM]
1 38749C 12045A   22241.98932870 -.00000188  00000-0  00000-0 0  2418
2 38749   0.0416 287.2549 0002382 234.4126 114.6613  1.00271237    14
INTELSAT 23 (IS-23)     
1 38867C 12057A   22237.00000000 -.00000318  00000-0  00000-0 0  2371
2 38867   0.0159 191.5085 0000458 168.6397 280.0665  1.00286054    19
INTELSAT 23 (IS-23)     
1 38867C 12057A   22241.00000000 -.00000196  00000-0  00000-0 0  2415
2 38867   0.0437 272.1081 0000893 247.7201 124.3774  1.00266575    13
INTELSAT 23 (IS-23) [PM]
1 38867C 12057A   22243.24946759 -.00000195  00000-0  00000-0 0  2434
2 38867   0.0430 281.1914 0001365  93.4214   1.6145  1.00273299    16
INTELSAT 30 (IS-30) [PM]
1 40271C 14062A   22236.34982639 -.00003281  00000-0  00000-0 0  2365
2 40271   0.0001 155.1877 0001690 269.7521 298.5410  1.00273013    16
INTELSAT 30 (IS-30)     
1 40271C 14062A   22237.00000000 -.00003489  00000-0  00000-0 0  2373
2 40271   0.0000 153.2688 0001625 284.1887 160.7297  1.00271246    17
INTELSAT 30 (IS-30)     
1 40271C 14062A   22241.00000000 -.00000061  00000-0  00000-0 0  2416
2 40271   0.0160 219.0368 0002187 218.1073 164.9993  1.00270324    13
INTELSAT 30 (IS-30) [PM]
1 40271C 14062A   22243.35763889 -.00000072  00000-0  00000-0 0  2431
2 40271   0.0260 263.3608 0002305 169.0354 300.8136  1.00272789    18
INTELSAT 34 (IS-34)     
1 40874C 15039A   22237.00000000 -.00000225  00000-0  00000-0 0  2372
2 40874   0.0100 222.6600 0000631 146.9964 268.0880  1.00269150    10
INTELSAT 34 (IS-34) [PM]
1 40874C 15039A   22237.28434028 -.00000212  00000-0  00000-0 0  2379
2 40874   0.0009 213.8817 0000598 153.2159  13.2836  1.00274057    12
INTELSAT 34 (IS-34)     
1 40874C 15039A   22241.00000000 -.00000222  00000-0  00000-0 0  2419
2 40874   0.0518 313.6320 0000634  98.4699 229.6020  1.00270874    16
INTELSAT 31 (IS-31)     
1 41581C 16035A   22237.00000000 -.00000061  00000-0  00000-0 0  2373
2 41581   0.0160 181.7872 0001452  67.4922 348.8945  1.00269988    19
INTELSAT 31 (IS-31) [PM]
1 41581C 16035A   22237.30339120 -.00000061  00000-0  00000-0 0  2374
2 41581   0.0103 167.8523 0001542  45.4463 134.3987  1.00273731    15
INTELSAT 31 (IS-31)     
1 41581C 16035A   22241.00000000 -.00000061  00000-0  00000-0 0  2413
2 41581   0.0201 205.0937 0001360   6.3797  30.6703  1.00271093    15
INTELSAT 36 (IS-36) [PM]
1 41747C 16053A   22236.33528935 -.00003440  00000-0  00000-0 0  2367
2 41747   0.0104  49.5781 0002787 292.8421 179.3696  1.00272569    10
